{
  "type": "FeatureCollection",
  "features": [
    {
      "type": "Feature",
      "properties": {
        "norad_id": 34955,
        "name": "COSMOS 2251 DEB",
        "group": "cosmos-2251-debris",
        "lat": -40.99017291892695,
        "lon": -110.95338062807168,
        "alt_km": 520.6786279035014,
        "timestamp": "2025-12-04T09:47:37.915295+00:00",
        "meta_object_name": "COSMOS 2251 DEB",
        "meta_object_id": "1993-036AEJ",
        "meta_epoch": "2025-12-03T01:58:24.293568",
        "meta_mean_motion": 15.00189355,
        "meta_eccentricity": 0.00783052,
        "meta_inclination": 74.0373,
        "meta_ra_of_asc_node": 266.1437,
        "meta_arg_of_pericenter": 338.174,
        "meta_mean_anomaly": 21.6115,
        "meta_ephemeris_type": 0,
        "meta_classification_type": "U",
        "meta_norad_cat_id": 34955,
        "meta_element_set_no": 999,
        "meta_rev_at_epoch": 89889,
        "meta_bstar": 0.0013091752,
        "meta_mean_motion_dot": 0.00017463,
        "meta_mean_motion_ddot": 0,
        "tle_line1": "1 34955U 93036AEJ 25337.08222562  .00017463  00000+0  13092-2 0  9991",
        "tle_line2": "2 34955  74.0373 266.1437 0078305 338.1740  21.6115 15.00189355898895"
      },
      "geometry": {
        "type": "Point",
        "coordinates": [
          -110.95338062807168,
          -40.99017291892695
        ]
      }
    },
    {
      "type": "Feature",
      "properties": {
        "norad_id": 34962,
        "name": "COSMOS 2251 DEB",
        "group": "cosmos-2251-debris",
        "lat": -69.87313141186779,
        "lon": 157.53596653896167,
        "alt_km": 734.0474704006801,
        "timestamp": "2025-12-04T09:47:37.915305+00:00",
        "meta_object_name": "COSMOS 2251 DEB",
        "meta_object_id": "1993-036AER",
        "meta_epoch": "2025-12-03T09:15:09.558720",
        "meta_mean_motion": 14.4647129,
        "meta_eccentricity": 0.00185566,
        "meta_inclination": 74.0295,
        "meta_ra_of_asc_node": 210.8361,
        "meta_arg_of_pericenter": 325.0213,
        "meta_mean_anomaly": 34.9725,
        "meta_ephemeris_type": 0,
        "meta_classification_type": "U",
        "meta_norad_cat_id": 34962,
        "meta_element_set_no": 999,
        "meta_rev_at_epoch": 87443,
        "meta_bstar": 0.00060190485,
        "meta_mean_motion_dot": 2.143e-05,
        "meta_mean_motion_ddot": 0,
        "tle_line1": "1 34962U 93036AER 25337.38552730  .00002143  00000+0  60190-3 0  9996",
        "tle_line2": "2 34962  74.0295 210.8361 0018556 325.0213  34.9725 14.46471290874439"
      },
      "geometry": {
        "type": "Point",
        "coordinates": [
          157.53596653896167,
          -69.87313141186779
        ]
      }
    },
    {
      "type": "Feature",
      "properties": {
        "norad_id": 34963,
        "name": "COSMOS 2251 DEB",
        "group": "cosmos-2251-debris",
        "lat": 43.54758894129287,
        "lon": 73.93132168175573,
        "alt_km": 744.7218232048845,
        "timestamp": "2025-12-04T09:47:37.915315+00:00",
        "meta_object_name": "COSMOS 2251 DEB",
        "meta_object_id": "1993-036AES",
        "meta_epoch": "2025-12-03T12:04:13.425888",
        "meta_mean_motion": 14.50919507,
        "meta_eccentricity": 0.00426303,
        "meta_inclination": 74.172,
        "meta_ra_of_asc_node": 59.975,
        "meta_arg_of_pericenter": 258.0433,
        "meta_mean_anomaly": 101.5948,
        "meta_ephemeris_type": 0,
        "meta_classification_type": "U",
        "meta_norad_cat_id": 34963,
        "meta_element_set_no": 999,
        "meta_rev_at_epoch": 86667,
        "meta_bstar": 0.0019734097,
        "meta_mean_motion_dot": 7.865e-05,
        "meta_mean_motion_ddot": 0,
        "tle_line1": "1 34963U 93036AES 25337.50293317  .00007865  00000+0  19734-2 0  9997",
        "tle_line2": "2 34963  74.1720  59.9750 0042630 258.0433 101.5948 14.50919507866675"
      },
      "geometry": {
        "type": "Point",
        "coordinates": [
          73.93132168175573,
          43.54758894129287
        ]
      }
    },
    {
      "type": "Feature",
      "properties": {
        "norad_id": 34964,
        "name": "COSMOS 2251 DEB",
        "group": "cosmos-2251-debris",
        "lat": 44.2327735682748,
        "lon": 166.09268498173435,
        "alt_km": 881.79140328212,
        "timestamp": "2025-12-04T09:47:37.915325+00:00",
        "meta_object_name": "COSMOS 2251 DEB",
        "meta_object_id": "1993-036AET",
        "meta_epoch": "2025-12-01T10:51:07.970112",
        "meta_mean_motion": 14.00515212,
        "meta_eccentricity": 0.02132053,
        "meta_inclination": 73.9732,
        "meta_ra_of_asc_node": 7.4842,
        "meta_arg_of_pericenter": 228.1536,
        "meta_mean_anomaly": 130.1229,
        "meta_ephemeris_type": 0,
        "meta_classification_type": "U",
        "meta_norad_cat_id": 34964,
        "meta_element_set_no": 999,
        "meta_rev_at_epoch": 84320,
        "meta_bstar": 0.0017784594,
        "meta_mean_motion_dot": 3.191e-05,
        "meta_mean_motion_ddot": 0,
        "tle_line1": "1 34964U 93036AET 25335.45217558  .00003191  00000+0  17785-2 0  9995",
        "tle_line2": "2 34964  73.9732   7.4842 0213205 228.1536 130.1229 14.00515212843200"
      },
      "geometry": {
        "type": "Point",
        "coordinates": [
          166.09268498173435,
          44.2327735682748
        ]
      }
    },
    {
      "type": "Feature",
      "properties": {
        "norad_id": 34965,
        "name": "COSMOS 2251 DEB",
        "group": "cosmos-2251-debris",
        "lat": -22.962565774985034,
        "lon": -28.975720825893642,
        "alt_km": 728.1529253846629,
        "timestamp": "2025-12-04T09:47:37.915335+00:00",
        "meta_object_name": "COSMOS 2251 DEB",
        "meta_object_id": "1993-036AEU",
        "meta_epoch": "2025-12-03T17:56:13.193952",
        "meta_mean_motion": 14.48667662,
        "meta_eccentricity": 0.00265132,
        "meta_inclination": 74.0501,
        "meta_ra_of_asc_node": 145.3009,
        "meta_arg_of_pericenter": 273.8401,
        "meta_mean_anomaly": 85.9727,
        "meta_ephemeris_type": 0,
        "meta_classification_type": "U",
        "meta_norad_cat_id": 34965,
        "meta_element_set_no": 999,
        "meta_rev_at_epoch": 86983,
        "meta_bstar": 0.00048063509,
        "meta_mean_motion_dot": 1.791e-05,
        "meta_mean_motion_ddot": 0,
        "tle_line1": "1 34965U 93036AEU 25337.74737493  .00001791  00000+0  48064-3 0  9994",
        "tle_line2": "2 34965  74.0501 145.3009 0026513 273.8401  85.9727 14.48667662869832"
      },
      "geometry": {
        "type": "Point",
        "coordinates": [
          -28.975720825893642,
          -22.962565774985034
        ]
      }
    },
    {
      "type": "Feature",
      "properties": {
        "norad_id": 34967,
        "name": "COSMOS 2251 DEB",
        "group": "cosmos-2251-debris",
        "lat": -63.176510223457015,
        "lon": 123.99239181512755,
        "alt_km": 777.8077149145793,
        "timestamp": "2025-12-04T09:47:37.915345+00:00",
        "meta_object_name": "COSMOS 2251 DEB",
        "meta_object_id": "1993-036AEW",
        "meta_epoch": "2025-12-01T02:30:41.683104",
        "meta_mean_motion": 14.44168549,
        "meta_eccentricity": 0.00374829,
        "meta_inclination": 73.9933,
        "meta_ra_of_asc_node": 275.5612,
        "meta_arg_of_pericenter": 64.8384,
        "meta_mean_anomaly": 295.6653,
        "meta_ephemeris_type": 0,
        "meta_classification_type": "U",
        "meta_norad_cat_id": 34967,
        "meta_element_set_no": 999,
        "meta_rev_at_epoch": 64789,
        "meta_bstar": 0.00079995093,
        "meta_mean_motion_dot": 2.741e-05,
        "meta_mean_motion_ddot": 0,
        "tle_line1": "1 34967U 93036AEW 25335.10464911  .00002741  00000+0  79995-3 0  9999",
        "tle_line2": "2 34967  73.9933 275.5612 0037482  64.8384 295.6653 14.44168549647896"
      },
      "geometry": {
        "type": "Point",
        "coordinates": [
          123.99239181512755,
          -63.176510223457015
        ]
      }
    },
    {
      "type": "Feature",
      "properties": {
        "norad_id": 34968,
        "name": "COSMOS 2251 DEB",
        "group": "cosmos-2251-debris",
        "lat": 8.816400666596875,
        "lon": -94.50437577860849,
        "alt_km": 637.9937443610452,
        "timestamp": "2025-12-04T09:47:37.915381+00:00",
        "meta_object_name": "COSMOS 2251 DEB",
        "meta_object_id": "1993-036AEX",
        "meta_epoch": "2025-12-02T01:48:56.339712",
        "meta_mean_motion": 14.59372646,
        "meta_eccentricity": 0.00862303,
        "meta_inclination": 74.039,
        "meta_ra_of_asc_node": 267.3956,
        "meta_arg_of_pericenter": 30.5548,
        "meta_mean_anomaly": 330.0599,
        "meta_ephemeris_type": 0,
        "meta_classification_type": "U",
        "meta_norad_cat_id": 34968,
        "meta_element_set_no": 999,
        "meta_rev_at_epoch": 88322,
        "meta_bstar": 0.00022982614,
        "meta_mean_motion_dot": 1.114e-05,
        "meta_mean_motion_ddot": 0,
        "tle_line1": "1 34968U 93036AEX 25336.07565208  .00001114  00000+0  22983-3 0  9996",
        "tle_line2": "2 34968  74.0390 267.3956 0086230  30.5548 330.0599 14.59372646883226"
      },
      "geometry": {
        "type": "Point",
        "coordinates": [
          -94.50437577860849,
          8.816400666596875
        ]
      }
    }
  ]
}